STARLINK-31334          
1 59157U 24044F   26068.81628732 -.00002151  00000+0 -68658-4 0  9997
2 59157  43.0034 109.8659 0001304 290.5191  69.5521 15.27573584113545
FLOCK 4G-29             
1 62642U 25009AK  26068.81464037  .00011147  00000+0  41831-3 0  9994
2 62642  97.4058 151.3683 0001366 288.0502  72.0588 15.27382318 63721
